STARLINK-30988          
1 58529U 23191X   26068.43771308  .00005550  00000+0  21102-3 0  9993
2 58529  42.9991 104.7823 0001164 338.4821  21.5982 15.27584834125430
YAOGAN-43 01D           
1 60461U 24148D   26068.43560480  .00010676  00000+0  37766-3 0  9999
2 60461  35.0010  61.7102 0002556 326.2473  33.8080 15.28369377 87008
